CCSDS_OMM_VERS = 2.0
CREATION_DATE  = 
ORIGINATOR     = 

OBJECT_NAME    = SEASAT 1
OBJECT_ID      = 1978-064A
CENTER_NAME    = EARTH
REF_FRAME      = TEME
TIME_SYSTEM    = UTC
MEAN_ELEMENT_THEORY = SGP/SGP4

EPOCH          = 2025-11-04T11:53:53.513664
MEAN_MOTION    = 14.45994218
ECCENTRICITY   = .00025179
INCLINATION    = 108.0055
RA_OF_ASC_NODE = 222.8152
ARG_OF_PERICENTER = 259.7804
MEAN_ANOMALY   = 100.3058

EPHEMERIS_TYPE = 0
CLASSIFICATION_TYPE = U
NORAD_CAT_ID   = 10967
ELEMENT_SET_NO = 999
REV_AT_EPOCH   = 48841
BSTAR          = .16241704E-3
MEAN_MOTION_DOT = .442E-5
MEAN_MOTION_DDOT = 0

CCSDS_OMM_VERS = 2.0
CREATION_DATE  = 
ORIGINATOR     = 

OBJECT_NAME    = SL-14 R/B
OBJECT_ID      = 1979-011B
CENTER_NAME    = EARTH
REF_FRAME      = TEME
TIME_SYSTEM    = UTC
MEAN_ELEMENT_THEORY = SGP/SGP4

EPOCH          = 2025-11-04T05:14:27.834144
MEAN_MOTION    = 14.91696126
ECCENTRICITY   = .0017561
INCLINATION    = 82.5262
RA_OF_ASC_NODE = 215.5695
ARG_OF_PERICENTER = 113.9723
MEAN_ANOMALY   = 246.3338

EPHEMERIS_TYPE = 0
CLASSIFICATION_TYPE = U
NORAD_CAT_ID   = 11267
ELEMENT_SET_NO = 999
REV_AT_EPOCH   = 51007
BSTAR          = .72897E-4
MEAN_MOTION_DOT = .761E-5
MEAN_MOTION_DDOT = 0

CCSDS_OMM_VERS = 2.0
CREATION_DATE  = 
ORIGINATOR     = 

OBJECT_NAME    = SL-8 R/B
OBJECT_ID      = 1979-089B
CENTER_NAME    = EARTH
REF_FRAME      = TEME
TIME_SYSTEM    = UTC
MEAN_ELEMENT_THEORY = SGP/SGP4

EPOCH          = 2025-11-04T11:28:37.584192
MEAN_MOTION    = 14.42243505
ECCENTRICITY   = .00153835
INCLINATION    = 74.0684
RA_OF_ASC_NODE = 322.7963
ARG_OF_PERICENTER = 171.7318
MEAN_ANOMALY   = 188.4095

EPHEMERIS_TYPE = 0
CLASSIFICATION_TYPE = U
NORAD_CAT_ID   = 11574
ELEMENT_SET_NO = 999
REV_AT_EPOCH   = 41805
BSTAR          = .11585332E-3
MEAN_MOTION_DOT = .356E-5
MEAN_MOTION_DDOT = 0

CCSDS_OMM_VERS = 2.0
CREATION_DATE  = 
ORIGINATOR     = 

OBJECT_NAME    = SL-14 R/B
OBJECT_ID      = 1980-005B
CENTER_NAME    = EARTH
REF_FRAME      = TEME
TIME_SYSTEM    = UTC
MEAN_ELEMENT_THEORY = SGP/SGP4

EPOCH          = 2025-11-04T14:51:05.804352
MEAN_MOTION    = 14.90710909
ECCENTRICITY   = .00148987
INCLINATION    = 82.5149
RA_OF_ASC_NODE = 65.8441
ARG_OF_PERICENTER = 216.3368
MEAN_ANOMALY   = 143.6841

EPHEMERIS_TYPE = 0
CLASSIFICATION_TYPE = U
NORAD_CAT_ID   = 11672
ELEMENT_SET_NO = 999
REV_AT_EPOCH   = 45785
BSTAR          = .86232694E-4
MEAN_MOTION_DOT = .872E-5
MEAN_MOTION_DDOT = 0

CCSDS_OMM_VERS = 2.0
CREATION_DATE  = 
ORIGINATOR     = 

OBJECT_NAME    = SL-8 R/B
OBJECT_ID      = 1981-003B
CENTER_NAME    = EARTH
REF_FRAME      = TEME
TIME_SYSTEM    = UTC
MEAN_ELEMENT_THEORY = SGP/SGP4

EPOCH          = 2025-11-04T12:48:11.928960
MEAN_MOTION    = 15.04932352
ECCENTRICITY   = .02836334
INCLINATION    = 82.9341
RA_OF_ASC_NODE = 45.3099
ARG_OF_PERICENTER = 252.3967
MEAN_ANOMALY   = 104.6102

EPHEMERIS_TYPE = 0
CLASSIFICATION_TYPE = U
NORAD_CAT_ID   = 12139
ELEMENT_SET_NO = 999
REV_AT_EPOCH   = 29581
BSTAR          = .63340567E-3
MEAN_MOTION_DOT = .22645E-3
MEAN_MOTION_DDOT = 0

CCSDS_OMM_VERS = 2.0
CREATION_DATE  = 
ORIGINATOR     = 

OBJECT_NAME    = SL-3 R/B
OBJECT_ID      = 1981-046B
CENTER_NAME    = EARTH
REF_FRAME      = TEME
TIME_SYSTEM    = UTC
MEAN_ELEMENT_THEORY = SGP/SGP4

EPOCH          = 2025-11-04T14:16:31.063872
MEAN_MOTION    = 15.38416855
ECCENTRICITY   = .00208474
INCLINATION    = 81.2321
RA_OF_ASC_NODE = 79.5223
ARG_OF_PERICENTER = 94.6819
MEAN_ANOMALY   = 265.6803

EPHEMERIS_TYPE = 0
CLASSIFICATION_TYPE = U
NORAD_CAT_ID   = 12465
ELEMENT_SET_NO = 999
REV_AT_EPOCH   = 41917
BSTAR          = .34708616E-3
MEAN_MOTION_DOT = .13282E-3
MEAN_MOTION_DDOT = 0

CCSDS_OMM_VERS = 2.0
CREATION_DATE  = 
ORIGINATOR     = 

OBJECT_NAME    = METEOR PRIRODA
OBJECT_ID      = 1981-065A
CENTER_NAME    = EARTH
REF_FRAME      = TEME
TIME_SYSTEM    = UTC
MEAN_ELEMENT_THEORY = SGP/SGP4

EPOCH          = 2025-11-04T14:36:35.208576
MEAN_MOTION    = 16.02396794
ECCENTRICITY   = .00025544
INCLINATION    = 97.4660
RA_OF_ASC_NODE = 12.2569
ARG_OF_PERICENTER = 280.2777
MEAN_ANOMALY   = 79.8214

EPHEMERIS_TYPE = 0
CLASSIFICATION_TYPE = U
NORAD_CAT_ID   = 12585
ELEMENT_SET_NO = 999
REV_AT_EPOCH   = 42468
BSTAR          = .66151691E-3
MEAN_MOTION_DOT = .383993E-2
MEAN_MOTION_DDOT = .66915682E-4

CCSDS_OMM_VERS = 2.0
CREATION_DATE  = 
ORIGINATOR     = 

OBJECT_NAME    = SL-3 R/B
OBJECT_ID      = 1981-103B
CENTER_NAME    = EARTH
REF_FRAME      = TEME
TIME_SYSTEM    = UTC
MEAN_ELEMENT_THEORY = SGP/SGP4

EPOCH          = 2025-11-04T14:34:55.762176
MEAN_MOTION    = 15.19527400
ECCENTRICITY   = .00159315
INCLINATION    = 81.1619
RA_OF_ASC_NODE = 359.9917
ARG_OF_PERICENTER = 4.5609
MEAN_ANOMALY   = 355.5764

EPHEMERIS_TYPE = 0
CLASSIFICATION_TYPE = U
NORAD_CAT_ID   = 12904
ELEMENT_SET_NO = 999
REV_AT_EPOCH   = 95422
BSTAR          = .20769477E-3
MEAN_MOTION_DOT = .445E-4
MEAN_MOTION_DDOT = 0

CCSDS_OMM_VERS = 2.0
CREATION_DATE  = 
ORIGINATOR     = 

OBJECT_NAME    = SL-3 R/B
OBJECT_ID      = 1982-013B
CENTER_NAME    = EARTH
REF_FRAME      = TEME
TIME_SYSTEM    = UTC
MEAN_ELEMENT_THEORY = SGP/SGP4

EPOCH          = 2025-11-04T13:10:04.807200
MEAN_MOTION    = 15.20579880
ECCENTRICITY   = .00215795
INCLINATION    = 81.1725
RA_OF_ASC_NODE = 307.3031
ARG_OF_PERICENTER = 239.1692
MEAN_ANOMALY   = 120.7416

EPHEMERIS_TYPE = 0
CLASSIFICATION_TYPE = U
NORAD_CAT_ID   = 13068
ELEMENT_SET_NO = 999
REV_AT_EPOCH   = 38532
BSTAR          = .23421421E-3
MEAN_MOTION_DOT = .5186E-4
MEAN_MOTION_DDOT = 0

CCSDS_OMM_VERS = 2.0
CREATION_DATE  = 
ORIGINATOR     = 

OBJECT_NAME    = SL-3 R/B
OBJECT_ID      = 1982-039B
CENTER_NAME    = EARTH
REF_FRAME      = TEME
TIME_SYSTEM    = UTC
MEAN_ELEMENT_THEORY = SGP/SGP4

EPOCH          = 2025-11-04T14:05:13.689600
MEAN_MOTION    = 15.09212145
ECCENTRICITY   = .00326649
INCLINATION    = 81.1825
RA_OF_ASC_NODE = 359.9608
ARG_OF_PERICENTER = 16.3857
MEAN_ANOMALY   = 343.8416

EPHEMERIS_TYPE = 0
CLASSIFICATION_TYPE = U
NORAD_CAT_ID   = 13154
ELEMENT_SET_NO = 999
REV_AT_EPOCH   = 36276
BSTAR          = .15558E-3
MEAN_MOTION_DOT = .2527E-4
MEAN_MOTION_DDOT = 0

CCSDS_OMM_VERS = 2.0
CREATION_DATE  = 
ORIGINATOR     = 

OBJECT_NAME    = SL-3 R/B
OBJECT_ID      = 1982-079B
CENTER_NAME    = EARTH
REF_FRAME      = TEME
TIME_SYSTEM    = UTC
MEAN_ELEMENT_THEORY = SGP/SGP4

EPOCH          = 2025-11-04T13:57:42.408576
MEAN_MOTION    = 15.22988850
ECCENTRICITY   = .00247603
INCLINATION    = 81.1474
RA_OF_ASC_NODE = 340.6261
ARG_OF_PERICENTER = 226.3619
MEAN_ANOMALY   = 133.5561

EPHEMERIS_TYPE = 0
CLASSIFICATION_TYPE = U
NORAD_CAT_ID   = 13403
ELEMENT_SET_NO = 999
REV_AT_EPOCH   = 35864
BSTAR          = .2454135E-3
MEAN_MOTION_DOT = .5842E-4
MEAN_MOTION_DDOT = 0

CCSDS_OMM_VERS = 2.0
CREATION_DATE  = 
ORIGINATOR     = 

OBJECT_NAME    = SL-14 R/B
OBJECT_ID      = 1982-092B
CENTER_NAME    = EARTH
REF_FRAME      = TEME
TIME_SYSTEM    = UTC
MEAN_ELEMENT_THEORY = SGP/SGP4

EPOCH          = 2025-11-04T09:22:00.075360
MEAN_MOTION    = 14.86486236
ECCENTRICITY   = .00204906
INCLINATION    = 82.5668
RA_OF_ASC_NODE = 258.5749
ARG_OF_PERICENTER = 1.7869
MEAN_ANOMALY   = 116.5262

EPHEMERIS_TYPE = 0
CLASSIFICATION_TYPE = U
NORAD_CAT_ID   = 13553
ELEMENT_SET_NO = 999
REV_AT_EPOCH   = 31031
BSTAR          = .80468399E-4
MEAN_MOTION_DOT = .738E-5
MEAN_MOTION_DDOT = 0

CCSDS_OMM_VERS = 2.0
CREATION_DATE  = 
ORIGINATOR     = 

OBJECT_NAME    = SL-3 R/B
OBJECT_ID      = 1983-010B
CENTER_NAME    = EARTH
REF_FRAME      = TEME
TIME_SYSTEM    = UTC
MEAN_ELEMENT_THEORY = SGP/SGP4

EPOCH          = 2025-11-04T01:12:57.234816
MEAN_MOTION    = 15.42059849
ECCENTRICITY   = .00182997
INCLINATION    = 81.1031
RA_OF_ASC_NODE = 155.7936
ARG_OF_PERICENTER = 121.8284
MEAN_ANOMALY   = 238.4743

EPHEMERIS_TYPE = 0
CLASSIFICATION_TYPE = U
NORAD_CAT_ID   = 13819
ELEMENT_SET_NO = 999
REV_AT_EPOCH   = 33855
BSTAR          = .33162015E-3
MEAN_MOTION_DOT = .14284E-3
MEAN_MOTION_DDOT = 0

CCSDS_OMM_VERS = 2.0
CREATION_DATE  = 
ORIGINATOR     = 

OBJECT_NAME    = SL-3 R/B
OBJECT_ID      = 1983-075B
CENTER_NAME    = EARTH
REF_FRAME      = TEME
TIME_SYSTEM    = UTC
MEAN_ELEMENT_THEORY = SGP/SGP4

EPOCH          = 2025-11-04T14:25:57.583488
MEAN_MOTION    = 15.35008794
ECCENTRICITY   = .0021973
INCLINATION    = 97.6095
RA_OF_ASC_NODE = 303.8371
ARG_OF_PERICENTER = 320.9791
MEAN_ANOMALY   = 38.9865

EPHEMERIS_TYPE = 0
CLASSIFICATION_TYPE = U
NORAD_CAT_ID   = 14208
ELEMENT_SET_NO = 999
REV_AT_EPOCH   = 31094
BSTAR          = .34423523E-3
MEAN_MOTION_DOT = .11701E-3
MEAN_MOTION_DDOT = 0

CCSDS_OMM_VERS = 2.0
CREATION_DATE  = 
ORIGINATOR     = 

OBJECT_NAME    = COSMOS 1536
OBJECT_ID      = 1984-013A
CENTER_NAME    = EARTH
REF_FRAME      = TEME
TIME_SYSTEM    = UTC
MEAN_ELEMENT_THEORY = SGP/SGP4

EPOCH          = 2025-11-04T06:50:06.256032
MEAN_MOTION    = 15.21809418
ECCENTRICITY   = .0015813
INCLINATION    = 82.5471
RA_OF_ASC_NODE = 232.2753
ARG_OF_PERICENTER = 11.9514
MEAN_ANOMALY   = 348.2094

EPHEMERIS_TYPE = 0
CLASSIFICATION_TYPE = U
NORAD_CAT_ID   = 14699
ELEMENT_SET_NO = 999
REV_AT_EPOCH   = 25353
BSTAR          = .39543E-3
MEAN_MOTION_DOT = .904E-4
MEAN_MOTION_DDOT = 0

